H1 CPF  1  DGF 2022 06 22 11  6731 larets     NONE      
H2   304206 5557    27944 2022 06 22 00 00 00 2022 06 29 00 00 00    30 1 1  0 0 0
H5  0.0650
H9
10 0 59752  61200.000000  0      -4735021.477       4846578.640       1998308.340
10 0 59752  61230.000000  0      -4653975.579       4832627.519       2210998.442
10 0 59752  61260.000000  0      -4568285.522       4813413.817       2421431.103
10 0 59752  61290.000000  0      -4478061.681       4788937.453       2629391.745
10 0 59752  61320.000000  0      -4383419.031       4759204.203       2834668.384
10 0 59752  61350.000000  0      -4284476.991       4724225.711       3037051.841
10 0 59752  61380.000000  0      -4181359.281       4684019.491       3236335.965
10 0 59752  61410.000000  0      -4074193.757       4638608.921       3432317.838
10 0 59752  61440.000000  0      -3963112.253       4588023.236       3624797.988
10 0 59752  61470.000000  0      -3848250.419       4532297.500       3813580.586
10 0 59752  61500.000000  0      -3729747.551       4471472.592       3998473.644
10 0 59752  61530.000000  0      -3607746.421       4405595.172       4179289.218
10 0 59752  61560.000000  0      -3482393.103       4334717.642       4355843.591
10 0 59752  61590.000000  0      -3353836.792       4258898.103       4527957.464
10 0 59752  61620.000000  0      -3222229.620       4178200.301       4695456.129
10 0 59752  61650.000000  0      -3087726.481       4092693.570       4858169.648
10 0 59752  61680.000000  0      -2950484.840       4002452.767       5015933.018
10 0 59752  61710.000000  0      -2810664.546       3907558.204       5168586.334
10 0 59752  61740.000000  0      -2668427.645       3808095.572       5315974.949
10 0 59752  61770.000000  0      -2523938.187       3704155.854       5457949.621
10 0 59752  61800.000000  0      -2377362.039       3595835.242       5594366.662
10 0 59752  61830.000000  0      -2228866.686       3483235.042       5725088.071
10 0 59752  61860.000000  0      -2078621.044       3366461.572       5849981.675
10 0 59752  61890.000000  0      -1926795.264       3245626.062       5968921.248
10 0 59752  61920.000000  0      -1773560.537       3120844.541       6081786.636
10 0 59752  61950.000000  0      -1619088.903       2992237.717       6188463.872
10 0 59752  61980.000000  0      -1463553.051       2859930.863       6288845.278
10 0 59752  62010.000000  0      -1307126.133       2724053.682       6382829.564
10 0 59752  62040.000000  0      -1149981.572       2584740.186       6470321.919
10 0 59752  62070.000000  0       -992292.876       2442128.563       6551234.105
10 0 59752  62100.000000  0       -834233.447       2296361.039       6625484.539
10 0 59752  62130.000000  0       -675976.392       2147583.737       6692998.373
10 0 59752  62160.000000  0       -517694.334       1995946.523       6753707.567
10 0 59752  62190.000000  0       -359559.226       1841602.860       6807550.946
10 0 59752  62220.000000  0       -201742.161       1684709.647       6854474.262
10 0 59752  62250.000000  0        -44413.197       1525427.064       6894430.236
10 0 59752  62280.000000  0        112258.830       1363918.406       6927378.607
10 0 59752  62310.000000  0        268106.484       1200349.920       6953286.166
10 0 59752  62340.000000  0        422963.900       1034890.635       6972126.787
10 0 59752  62370.000000  0        576666.965        867712.189       6983881.449
10 0 59752  62400.000000  0        729053.484        698988.654       6988538.257
10 0 59752  62430.000000  0        879963.352        528896.361       6986092.454
10 0 59752  62460.000000  0       1029238.717        357613.710       6976546.423
10 0 59752  62490.000000  0       1176724.146        185320.995       6959909.692
10 0 59752  62520.000000  0       1322266.782         12200.209       6936198.919
10 0 59752  62550.000000  0       1465716.505       -161565.140       6905437.886
10 0 59752  62580.000000  0       1606926.083       -335790.231       6867657.472
10 0 59752  62610.000000  0       1745751.325       -510289.118       6822895.624
10 0 59752  62640.000000  0       1882051.220       -684874.927       6771197.321
10 0 59752  62670.000000  0       2015688.086       -859360.053       6712614.536
10 0 59752  62700.000000  0       2146527.708      -1033556.355       6647206.189
10 0 59752  62730.000000  0       2274439.471      -1207275.363       6575038.098
10 0 59752  62760.000000  0       2399296.495      -1380328.477       6496182.912
10 0 59752  62790.000000  0       2520975.764      -1552527.175       6410720.051
10 0 59752  62820.000000  0       2639358.246      -1723683.214       6318735.627
10 0 59752  62850.000000  0       2754329.011      -1893608.839       6220322.366
10 0 59752  62880.000000  0       2865777.348      -2062116.988       6115579.516
10 0 59752  62910.000000  0       2973596.870      -2229021.493       6004612.755
10 0 59752  62940.000000  0       3077685.620      -2394137.289       5887534.094
10 0 59752  62970.000000  0       3177946.167      -2557280.618       5764461.771
10 0 59752  63000.000000  0       3274285.706      -2718269.238       5635520.141
10 0 59752  63030.000000  0       3366616.142      -2876922.627       5500839.553
10 0 59752  63060.000000  0       3454854.178      -3033062.187       5360556.231
10 0 59752  63090.000000  0       3538921.390      -3186511.449       5214812.134
10 0 59752  63120.000000  0       3618744.302      -3337096.272       5063754.828
10 0 59752  63150.000000  0       3694254.455      -3484645.046       4907537.337
10 0 59752  63180.000000  0       3765388.470      -3628988.890       4746317.998
10 0 59752  63210.000000  0       3832088.106      -3769961.850       4580260.302
10 0 59752  63240.000000  0       3894300.307      -3907401.098       4409532.734
10 0 59752  63270.000000  0       3951977.247      -4041147.118       4234308.602
10 0 59752  63300.000000  0       4005076.370      -4171043.900       4054765.867
10 0 59752  63330.000000  0       4053560.419      -4296939.122       3871086.970
10 0 59752  63360.000000  0       4097397.466      -4418684.338       3683458.643
10 0 59752  63390.000000  0       4136560.931      -4536135.156       3492071.726
10 0 59752  63420.000000  0       4171029.598      -4649151.416       3297120.970
10 0 59752  63450.000000  0       4200787.621      -4757597.359       3098804.840
10 0 59752  63480.000000  0       4225824.527      -4861341.797       2897325.311
10 0 59752  63510.000000  0       4246135.211      -4960258.275       2692887.664
10 0 59752  63540.000000  0       4261719.921      -5054225.228       2485700.273
10 0 59752  63570.000000  0       4272584.244      -5143126.133       2275974.390
10 0 59752  63600.000000  0       4278739.084      -5226849.660       2063923.931
10 0 59752  63630.000000  0       4280200.625      -5305289.813       1849765.247
10 0 59752  63660.000000  0       4276990.302      -5378346.064       1633716.905
10 0 59752  63690.000000  0       4269134.748      -5445923.487       1415999.456
10 0 59752  63720.000000  0       4256665.753      -5507932.877       1196835.204
10 0 59752  63750.000000  0       4239620.200      -5564290.868        976447.979
10 0 59752  63780.000000  0       4218040.008      -5614920.041        755062.901
10 0 59752  63810.000000  0       4191972.067      -5659749.028        532906.150
10 0 59752  63840.000000  0       4161468.168      -5698712.617        310204.728
10 0 59752  63870.000000  0       4126584.924      -5731751.842         87186.216
10 0 59752  63900.000000  0       4087383.681      -5758814.067       -135921.463
10 0 59752  63930.000000  0       4043930.435      -5779853.062       -358890.292
10 0 59752  63960.000000  0       3996295.727      -5794829.072       -581492.397
10 0 59752  63990.000000  0       3944554.542      -5803708.874       -803500.290
10 0 59752  64020.000000  0       3888786.202      -5806465.828      -1024687.108
10 0 59752  64050.000000  0       3829074.256      -5803079.923      -1244826.849
10 0 59752  64080.000000  0       3765506.361      -5793537.814      -1463694.606
10 0 59752  64110.000000  0       3698174.163      -5777832.851      -1681066.808
10 0 59752  64140.000000  0       3627173.174      -5755965.102      -1896721.451
10 0 59752  64170.000000  0       3552602.641      -5727941.365      -2110438.332
10 0 59752  64200.000000  0       3474565.413      -5693775.180      -2321999.283
10 0 59752  64230.000000  0       3393167.802      -5653486.818      -2531188.396
10 0 59752  64260.000000  0       3308519.441      -5607103.277      -2737792.255
10 0 59752  64290.000000  0       3220733.136      -5554658.257      -2941600.150
10 0 59752  64320.000000  0       3129924.723      -5496192.136      -3142404.300
10 0 59752  64350.000000  0       3036212.909      -5431751.936      -3340000.066
10 0 59752  64380.000000  0       2939719.124      -5361391.281      -3534186.161
10 0 59752  64410.000000  0       2840567.358      -5285170.347      -3724764.857
10 0 59752  64440.000000  0       2738884.004      -5203155.802      -3911542.188
10 0 59752  64470.000000  0       2634797.698      -5115420.748      -4094328.143
10 0 59752  64500.000000  0       2528439.151      -5022044.641      -4272936.863
10 0 59752  64530.000000  0       2419940.990      -4923113.220      -4447186.825
10 0 59752  64560.000000  0       2309437.591      -4818718.411      -4616901.023
10 0 59752  64590.000000  0       2197064.910      -4708958.240      -4781907.147
10 0 59752  64620.000000  0       2082960.321      -4593936.734      -4942037.749
10 0 59752  64650.000000  0       1967262.446      -4473763.811      -5097130.414
10 0 59752  64680.000000  0       1850110.992      -4348555.171      -5247027.914
10 0 59752  64710.000000  0       1731646.575      -4218432.178      -5391578.367
10 0 59752  64740.000000  0       1612010.558      -4083521.736      -5530635.383
10 0 59752  64770.000000  0       1491344.879      -3943956.158      -5664058.207
99
